[{"OBJECT_NAME":"BREEZE-M R/B","OBJECT_ID":"2025-131B","EPOCH":"2026-02-26T22:35:18.936096","MEAN_MOTION":1.04432222,"ECCENTRICITY":0.3864148,"INCLINATION":0.4308,"RA_OF_ASC_NODE":302.5287,"ARG_OF_PERICENTER":160.2548,"MEAN_ANOMALY":302.1848,"EPHEMERIS_TYPE":0,"CLASSIFICATION_TYPE":"U","NORAD_CAT_ID":64468,"ELEMENT_SET_NO":999,"REV_AT_EPOCH":263,"BSTAR":0,"MEAN_MOTION_DOT":-1.71e-6,"MEAN_MOTION_DDOT":0},{"OBJECT_NAME":"CHINASAT 9C","OBJECT_ID":"2025-132A","EPOCH":"2026-03-07T14:04:14.355264","MEAN_MOTION":1.00271442,"ECCENTRICITY":0.00025365,"INCLINATION":0.0293,"RA_OF_ASC_NODE":107.7147,"ARG_OF_PERICENTER":230.2286,"MEAN_ANOMALY":130.6042,"EPHEMERIS_TYPE":0,"CLASSIFICATION_TYPE":"U","NORAD_CAT_ID":64470,"ELEMENT_SET_NO":999,"REV_AT_EPOCH":313,"BSTAR":0,"MEAN_MOTION_DOT":-2.48e-6,"MEAN_MOTION_DDOT":0},{"OBJECT_NAME":"COSMOS 2590","OBJECT_ID":"2025-131D","EPOCH":"2026-03-07T17:48:43.202016","MEAN_MOTION":1.0026628,"ECCENTRICITY":0.3658942,"INCLINATION":0.1171,"RA_OF_ASC_NODE":10.8994,"ARG_OF_PERICENTER":88.0535,"MEAN_ANOMALY":81.1922,"EPHEMERIS_TYPE":0,"CLASSIFICATION_TYPE":"U","NORAD_CAT_ID":64527,"ELEMENT_SET_NO":999,"REV_AT_EPOCH":259,"BSTAR":0,"MEAN_MOTION_DOT":-3.08e-6,"MEAN_MOTION_DDOT":0},{"OBJECT_NAME":"MTG-S1","OBJECT_ID":"2025-143A","EPOCH":"2026-03-07T07:03:22.433760","MEAN_MOTION":1.00270406,"ECCENTRICITY":0.00024548,"INCLINATION":0.6521,"RA_OF_ASC_NODE":326.8037,"ARG_OF_PERICENTER":349.9696,"MEAN_ANOMALY":310.5915,"EPHEMERIS_TYPE":0,"CLASSIFICATION_TYPE":"U","NORAD_CAT_ID":64723,"ELEMENT_SET_NO":999,"REV_AT_EPOCH":239,"BSTAR":0,"MEAN_MOTION_DOT":-3.4e-7,"MEAN_MOTION_DDOT":0},{"OBJECT_NAME":"DROR 1","OBJECT_ID":"2025-148A","EPOCH":"2026-03-07T07:03:14.946336","MEAN_MOTION":1.0027145,"ECCENTRICITY":0.00035083,"INCLINATION":0.0355,"RA_OF_ASC_NODE":85.4351,"ARG_OF_PERICENTER":263.7791,"MEAN_ANOMALY":277.5827,"EPHEMERIS_TYPE":0,"CLASSIFICATION_TYPE":"U","NORAD_CAT_ID":64784,"ELEMENT_SET_NO":999,"REV_AT_EPOCH":227,"BSTAR":0,"MEAN_MOTION_DOT":-3.7e-7,"MEAN_MOTION_DDOT":0},{"OBJECT_NAME":"SHIYAN-29","OBJECT_ID":"2025-196A","EPOCH":"2026-03-06T18:19:44.289984","MEAN_MOTION":1.0028844,"ECCENTRICITY":0.00099435,"INCLINATION":28.7137,"RA_OF_ASC_NODE":19.824,"ARG_OF_PERICENTER":182.4242,"MEAN_ANOMALY":331.6771,"EPHEMERIS_TYPE":0,"CLASSIFICATION_TYPE":"U","NORAD_CAT_ID":65486,"ELEMENT_SET_NO":999,"REV_AT_EPOCH":185,"BSTAR":0,"MEAN_MOTION_DOT":-2.71e-6,"MEAN_MOTION_DDOT":0},{"OBJECT_NAME":"NUSANTARA LIMA (NUSANTARA 5)","OBJECT_ID":"2025-205A","EPOCH":"2026-03-06T23:34:38.773344","MEAN_MOTION":1.00271886,"ECCENTRICITY":9.534e-5,"INCLINATION":0.0811,"RA_OF_ASC_NODE":57.4738,"ARG_OF_PERICENTER":2.2162,"MEAN_ANOMALY":211.4958,"EPHEMERIS_TYPE":0,"CLASSIFICATION_TYPE":"U","NORAD_CAT_ID":65588,"ELEMENT_SET_NO":999,"REV_AT_EPOCH":169,"BSTAR":0,"MEAN_MOTION_DOT":-3.6e-6,"MEAN_MOTION_DDOT":0},{"OBJECT_NAME":"TJS-20","OBJECT_ID":"2025-238A","EPOCH":"2026-03-07T15:18:20.729088","MEAN_MOTION":1.00270893,"ECCENTRICITY":0.00077739,"INCLINATION":5.6956,"RA_OF_ASC_NODE":299.929,"ARG_OF_PERICENTER":92.2678,"MEAN_ANOMALY":65.1075,"EPHEMERIS_TYPE":0,"CLASSIFICATION_TYPE":"U","NORAD_CAT_ID":66142,"ELEMENT_SET_NO":999,"REV_AT_EPOCH":131,"BSTAR":0,"MEAN_MOTION_DOT":2.3e-7,"MEAN_MOTION_DDOT":0},{"OBJECT_NAME":"SPAINSAT NG II","OBJECT_ID":"2025-239A","EPOCH":"2026-03-06T13:00:50.796576","MEAN_MOTION":0.96966711,"ECCENTRICITY":0.76569264,"INCLINATION":14.8624,"RA_OF_ASC_NODE":233.7024,"ARG_OF_PERICENTER":200.4014,"MEAN_ANOMALY":92.5381,"EPHEMERIS_TYPE":0,"CLASSIFICATION_TYPE":"U","NORAD_CAT_ID":66144,"ELEMENT_SET_NO":999,"REV_AT_EPOCH":135,"BSTAR":0,"MEAN_MOTION_DOT":-2.1e-7,"MEAN_MOTION_DDOT":0},{"OBJECT_NAME":"CMS-03 (GSAT-7R)","OBJECT_ID":"2025-249B","EPOCH":"2026-03-07T15:25:33.661344","MEAN_MOTION":0.99987762,"ECCENTRICITY":0.0001653,"INCLINATION":0.0545,"RA_OF_ASC_NODE":270.8612,"ARG_OF_PERICENTER":211.8451,"MEAN_ANOMALY":351.8763,"EPHEMERIS_TYPE":0,"CLASSIFICATION_TYPE":"U","NORAD_CAT_ID":66311,"ELEMENT_SET_NO":999,"REV_AT_EPOCH":133,"BSTAR":0,"MEAN_MOTION_DOT":-5.3e-7,"MEAN_MOTION_DDOT":0},{"OBJECT_NAME":"VIASAT-3 F2","OBJECT_ID":"2025-261A","EPOCH":"2026-03-04T23:48:38.641824","MEAN_MOTION":1.00672441,"ECCENTRICITY":0.0146775,"INCLINATION":0.1812,"RA_OF_ASC_NODE":278.4092,"ARG_OF_PERICENTER":213.005,"MEAN_ANOMALY":300.5685,"EPHEMERIS_TYPE":0,"CLASSIFICATION_TYPE":"U","NORAD_CAT_ID":66454,"ELEMENT_SET_NO":999,"REV_AT_EPOCH":173,"BSTAR":0,"MEAN_MOTION_DOT":-2.94e-6,"MEAN_MOTION_DDOT":0},{"OBJECT_NAME":"SHIJIAN-28 (SJ-28)","OBJECT_ID":"2025-277A","EPOCH":"2026-03-07T13:57:38.791008","MEAN_MOTION":1.00273548,"ECCENTRICITY":3.081e-5,"INCLINATION":4.8003,"RA_OF_ASC_NODE":273.6645,"ARG_OF_PERICENTER":165.0303,"MEAN_ANOMALY":52.7668,"EPHEMERIS_TYPE":0,"CLASSIFICATION_TYPE":"U","NORAD_CAT_ID":66549,"ELEMENT_SET_NO":999,"REV_AT_EPOCH":113,"BSTAR":0,"MEAN_MOTION_DOT":-3.64e-6,"MEAN_MOTION_DDOT":0},{"OBJECT_NAME":"TJS-22","OBJECT_ID":"2025-290A","EPOCH":"2026-03-07T03:34:10.213248","MEAN_MOTION":1.00272345,"ECCENTRICITY":0.00028902,"INCLINATION":1.78,"RA_OF_ASC_NODE":285.4453,"ARG_OF_PERICENTER":359.1777,"MEAN_ANOMALY":0.2201,"EPHEMERIS_TYPE":0,"CLASSIFICATION_TYPE":"U","NORAD_CAT_ID":66990,"ELEMENT_SET_NO":999,"REV_AT_EPOCH":100,"BSTAR":0,"MEAN_MOTION_DOT":-1.0e-7,"MEAN_MOTION_DDOT":0},{"OBJECT_NAME":"TJS-23","OBJECT_ID":"2025-306A","EPOCH":"2026-03-06T21:11:06.018720","MEAN_MOTION":1.00275233,"ECCENTRICITY":0.0004624,"INCLINATION":5.8211,"RA_OF_ASC_NODE":297.9942,"ARG_OF_PERICENTER":108.3772,"MEAN_ANOMALY":251.5396,"EPHEMERIS_TYPE":0,"CLASSIFICATION_TYPE":"U","NORAD_CAT_ID":67226,"ELEMENT_SET_NO":999,"REV_AT_EPOCH":86,"BSTAR":0,"MEAN_MOTION_DOT":1.2e-7,"MEAN_MOTION_DDOT":0},{"OBJECT_NAME":"CZ-5 R/B","OBJECT_ID":"2025-306B","EPOCH":"2026-03-06T20:12:00.147168","MEAN_MOTION":1.93422166,"ECCENTRICITY":0.7566097,"INCLINATION":15.9828,"RA_OF_ASC_NODE":273.2651,"ARG_OF_PERICENTER":226.7718,"MEAN_ANOMALY":38.3502,"EPHEMERIS_TYPE":0,"CLASSIFICATION_TYPE":"U","NORAD_CAT_ID":67227,"ELEMENT_SET_NO":999,"REV_AT_EPOCH":149,"BSTAR":0.0016878,"MEAN_MOTION_DOT":4.637e-5,"MEAN_MOTION_DDOT":0},{"OBJECT_NAME":"FENGYUN 4C","OBJECT_ID":"2025-312A","EPOCH":"2026-03-07T05:30:38.621088","MEAN_MOTION":1.00271747,"ECCENTRICITY":8.806e-5,"INCLINATION":0.0152,"RA_OF_ASC_NODE":335.5007,"ARG_OF_PERICENTER":51.6098,"MEAN_ANOMALY":353.4837,"EPHEMERIS_TYPE":0,"CLASSIFICATION_TYPE":"U","NORAD_CAT_ID":67246,"ELEMENT_SET_NO":999,"REV_AT_EPOCH":75,"BSTAR":0,"MEAN_MOTION_DOT":-3.25e-6,"MEAN_MOTION_DDOT":0},{"OBJECT_NAME":"SHIJIAN-29A (SJ-29A)","OBJECT_ID":"2025-315A","EPOCH":"2026-03-07T18:25:49.594368","MEAN_MOTION":1.00273446,"ECCENTRICITY":0.0002437,"INCLINATION":3.1399,"RA_OF_ASC_NODE":97.7268,"ARG_OF_PERICENTER":309.6484,"MEAN_ANOMALY":107.6385,"EPHEMERIS_TYPE":0,"CLASSIFICATION_TYPE":"U","NORAD_CAT_ID":67302,"ELEMENT_SET_NO":999,"REV_AT_EPOCH":60,"BSTAR":0,"MEAN_MOTION_DOT":-6.7e-7,"MEAN_MOTION_DDOT":0}]
