BREEZE-M R/B            
1 64468U 25131B   26057.94119139 -.00000171  00000+0  00000+0 0  9995
2 64468   0.4308 302.5287 3864148 160.2548 302.1848  1.04432222  2639
CHINASAT 9C             
1 64470U 25132A   26066.58627726 -.00000248  00000+0  00000+0 0  9990
2 64470   0.0293 107.7147 0002536 230.2286 130.6042  1.00271442  3137
COSMOS 2590             
1 64527U 25131D   26066.74216669 -.00000308  00000+0  00000+0 0  9997
2 64527   0.1171  10.8994 3658942  88.0535  81.1922  1.00266280  2597
MTG-S1                  
1 64723U 25143A   26066.29400965 -.00000034  00000+0  00000+0 0  9998
2 64723   0.6521 326.8037 0002454 349.9696 310.5915  1.00270406  2396
DROR 1                  
1 64784U 25148A   26066.29392299 -.00000037  00000+0  00000+0 0  9993
2 64784   0.0355  85.4351 0003508 263.7791 277.5827  1.00271450  2270
SHIYAN-29               
1 65486U 25196A   26065.76370706 -.00000271  00000+0  00000+0 0  9996
2 65486  28.7137  19.8240 0009943 182.4242 331.6771  1.00288440  1850
NUSANTARA LIMA (NUSANT*)
1 65588U 25205A   26065.98239321 -.00000360  00000+0  00000+0 0  9990
2 65588   0.0811  57.4738 0000953   2.2162 211.4958  1.00271886  1697
TJS-20                  
1 66142U 25238A   26066.63773992  .00000023  00000+0  00000+0 0  9998
2 66142   5.6956 299.9290 0007773  92.2678  65.1075  1.00270893  1319
SPAINSAT NG II          
1 66144U 25239A   26065.54225459 -.00000021  00000+0  00000+0 0  9999
2 66144  14.8624 233.7024 7656926 200.4014  92.5381  0.96966711  1353
CMS-03 (GSAT-7R)        
1 66311U 25249B   26066.64275071 -.00000053  00000+0  00000+0 0  9998
2 66311   0.0545 270.8612 0001653 211.8451 351.8763  0.99987762  1333
VIASAT-3 F2             
1 66454U 25261A   26063.99211391 -.00000294  00000+0  00000+0 0  9997
2 66454   0.1812 278.4092 0146775 213.0050 300.5685  1.00672441  1735
SHIJIAN-28 (SJ-28)      
1 66549U 25277A   26066.58169897 -.00000364  00000+0  00000+0 0  9998
2 66549   4.8003 273.6645 0000308 165.0303  52.7668  1.00273548  1138
TJS-22                  
1 66990U 25290A   26066.14872932 -.00000010  00000+0  00000+0 0  9994
2 66990   1.7800 285.4453 0002890 359.1777   0.2201  1.00272345  1007
TJS-23                  
1 67226U 25306A   26065.88270855  .00000012  00000+0  00000+0 0  9992
2 67226   5.8211 297.9942 0004624 108.3772 251.5396  1.00275233   866
CZ-5 R/B                
1 67227U 25306B   26065.84166837  .00004637  00000+0  16878-2 0  9993
2 67227  15.9828 273.2651 7566097 226.7718  38.3502  1.93422166  1497
FENGYUN 4C              
1 67246U 25312A   26066.22961367 -.00000325  00000+0  00000+0 0  9993
2 67246   0.0152 335.5007 0000880  51.6098 353.4837  1.00271747   757
SHIJIAN-29A (SJ-29A)    
1 67302U 25315A   26066.76793512 -.00000067  00000+0  00000+0 0  9996
2 67302   3.1399  97.7268 0002437 309.6484 107.6385  1.00273446   607
